NORAD_CAT_ID,OBJECT_NAME,OBJECT_TYPE,EPOCH,MEAN_MOTION,ECCENTRICITY,INCLINATION,RA_OF_ASC_NODE,ARG_OF_PERICENTER,MEAN_ANOMALY,BSTAR,MEAN_MOTION_DOT,MEAN_MOTION_DDOT,TLE_LINE0,TLE_LINE1,TLE_LINE2,SEMIMAJOR_AXIS,PERIOD,APOGEE,PERIGEE,DECAYED
53891.0,STARLINK-5041,PAYLOAD,2024-02-24 08:24:54,15.08842589,0.0001486,53.217,65.6631,92.7897,267.3265,7.1751e-05,8.54e-06,0.0,0 STARLINK-5041,1 53891U 22119F   24055.35063315  .00000854  00000-0  71751-4 0  9995,2 53891  53.2170  65.6631 0001486  92.7897 267.3265 15.08842589 79315,6917.872,95.437,540.765,538.709,0.0
53891.0,STARLINK-5041,PAYLOAD,2024-02-24 17:57:13,15.08839763,0.0001456,53.2168,63.8766,97.5588,262.5569,6.382e-06,-1.86e-06,0.0,0 STARLINK-5041,1 53891U 22119F   24055.74807552 -.00000186  00000-0  63820-5 0  9995,2 53891  53.2168  63.8766 0001456  97.5588 262.5569 15.08839763 79378,6917.881,95.438,540.753,538.739,0.0
53891.0,STARLINK-5041,PAYLOAD,2024-02-25 06:40:18,15.08844158,0.000158,53.2177,61.4962,89.4331,270.6843,3.9729e-05,3.44e-06,0.0,0 STARLINK-5041,1 53891U 22119F   24056.27799285  .00000344  00000-0  39729-4 0  9992,2 53891  53.2177  61.4962 0001580  89.4331 270.6843 15.08844158 79036,6917.868,95.437,540.826,538.64,0.0
53891.0,STARLINK-5041,PAYLOAD,2024-02-25 17:48:00,15.088448,0.0001522,53.2179,59.4147,98.4255,261.6909,8.0415e-05,9.92e-06,0.0,0 STARLINK-5041,1 53891U 22119F   24056.74167013  .00000992  00000-0  80415-4 0  9999,2 53891  53.2179  59.4147 0001522  98.4255 261.6909 15.08844800 79522,6917.866,95.437,540.784,538.678,0.0
53891.0,STARLINK-5041,PAYLOAD,2024-02-26 06:31:05,15.08850617,0.0001588,53.2179,57.0358,100.7851,259.332,7.3485e-05,8.82e-06,0.0,0 STARLINK-5041,1 53891U 22119F   24057.27158643  .00000882  00000-0  73485-4 0  9994,2 53891  53.2179  57.0358 0001588 100.7851 259.3320 15.08850617 79604,6917.848,95.437,540.811,538.614,0.0
53891.0,STARLINK-5041,PAYLOAD,2024-02-27 03:11:06,15.08835607,0.0001638,53.2194,53.1732,106.7905,253.3267,5.0981e-05,5.23e-06,0.0,0 STARLINK-5041,1 53891U 22119F   24058.13271700  .00000523  00000-0  50981-4 0  9998,2 53891  53.2194  53.1732 0001638 106.7905 253.3267 15.08835607 79310,6917.894,95.438,540.892,538.626,0.0
53891.0,STARLINK-5041,PAYLOAD,2024-02-27 09:32:39,15.08837648,0.0001514,53.2177,51.9812,92.5183,267.5983,4.8746e-06,-2.1e-06,0.0,0 STARLINK-5041,1 53891U 22119F   24058.39767824 -.00000210  00000-0  48746-5 0  9994,2 53891  53.2177  51.9812 0001514  92.5183 267.5983 15.08837648 79778,6917.888,95.438,540.8,538.705,0.0
53891.0,STARLINK-5041,PAYLOAD,2024-02-28 06:12:39,15.08844292,0.0001463,53.2177,48.1165,88.2314,271.8846,9.4349e-05,1.214e-05,0.0,0 STARLINK-5041,1 53891U 22119F   24059.25879267  .00001214  00000-0  94349-4 0  9998,2 53891  53.2177  48.1165 0001463  88.2314 271.8846 15.08844292 79485,6917.867,95.437,540.744,538.72,0.0
53891.0,STARLINK-5041,PAYLOAD,2024-02-28 22:06:31,15.08833159,0.0001634,53.2184,45.1467,97.9976,262.1202,8.155e-05,1.01e-05,0.0,0 STARLINK-5041,1 53891U 22119F   24059.92120140  .00001010  00000-0  81550-4 0  9995,2 53891  53.2184  45.1467 0001634  97.9976 262.1202 15.08833159 80005,6917.901,95.438,540.897,538.636,0.0
53891.0,STARLINK-5041,PAYLOAD,2024-02-29 02:52:41,15.08832371,0.0001639,53.2185,44.2545,98.3146,261.8032,7.0402e-05,8.32e-06,0.0,0 STARLINK-5041,1 53891U 22119F   24060.11992326  .00000832  00000-0  70402-4 0  9996,2 53891  53.2185  44.2545 0001639  98.3146 261.8032 15.08832371 79619,6917.904,95.438,540.903,538.635,0.0
53891.0,STARLINK-5041,PAYLOAD,2024-02-29 09:14:13,15.08838566,0.000164,53.2187,43.0645,97.4647,262.6531,0.00010299,1.351e-05,0.0,0 STARLINK-5041,1 53891U 22119F   24060.38487974  .00001351  00000-0  10299-3 0  9997,2 53891  53.2187  43.0645 0001640  97.4647 262.6531 15.08838566 80074,6917.885,95.438,540.884,538.615,0.0
53891.0,STARLINK-5041,PAYLOAD,2024-02-29 15:35:46,15.0883426,0.0001569,53.2182,41.8704,87.2356,272.8816,5.7976e-05,6.35e-06,0.0,0 STARLINK-5041,1 53891U 22119F   24060.64984441  .00000635  00000-0  57976-4 0  9995,2 53891  53.2182  41.8704 0001569  87.2356 272.8816 15.08834260 80116,6917.898,95.438,540.848,538.678,0.0
53891.0,STARLINK-5041,PAYLOAD,2024-03-01 04:18:51,15.08839923,0.0001462,53.2176,39.4918,89.1823,270.9336,8.4653e-06,-1.53e-06,0.0,0 STARLINK-5041,1 53891U 22119F   24061.17976375 -.00000153  00000-0  84653-5 0  9990,2 53891  53.2176  39.4918 0001462  89.1823 270.9336 15.08839923 79778,6917.881,95.438,540.757,538.734,0.0
53891.0,STARLINK-5041,PAYLOAD,2024-03-01 07:29:37,15.088466,0.0001404,53.2174,38.8974,90.1811,269.9342,6.6139e-05,7.65e-06,0.0,0 STARLINK-5041,1 53891U 22119F   24061.31223791  .00000765  00000-0  66139-4 0  9999,2 53891  53.2174  38.8974 0001404  90.1811 269.9342 15.08846600 79793,6917.86,95.437,540.696,538.754,0.0
53891.0,STARLINK-5041,PAYLOAD,2024-03-01 15:26:33,15.0884147,0.0001518,53.2182,37.4107,89.4295,270.6872,5.2829e-05,5.53e-06,0.0,0 STARLINK-5041,1 53891U 22119F   24061.64344081  .00000553  00000-0  52829-4 0  9997,2 53891  53.2182  37.4107 0001518  89.4295 270.6872 15.08841470 80269,6917.876,95.437,540.791,538.691,0.0
53891.0,STARLINK-5041,PAYLOAD,2024-03-02 05:44:58,15.08874286,0.0001502,53.218,34.7352,128.5935,231.5192,0.00032878,4.953e-05,0.0,0 STARLINK-5041,1 53891U 22119F   24062.23957150  .00004953  00000-0  32878-3 0  9999,2 53891  53.2180  34.7352 0001502 128.5935 231.5192 15.08874286 79932,6917.776,95.435,540.68,538.602,0.0
53891.0,STARLINK-5041,PAYLOAD,2024-03-03 04:00:25,15.0883542,0.0001236,53.2182,30.57,101.684,258.4291,8.987e-05,1.143e-05,0.0,0 STARLINK-5041,1 53891U 22119F   24063.16696367  .00001143  00000-0  89870-4 0  9995,2 53891  53.2182  30.5700 0001236 101.6840 258.4291 15.08835420 80078,6917.894,95.438,540.614,538.904,0.0
53891.0,STARLINK-5041,PAYLOAD,2024-03-03 07:11:11,15.0885158,0.0001618,53.2183,29.9766,132.683,227.4299,4.8166e-05,4.79e-06,0.0,0 STARLINK-5041,1 53891U 22119F   24063.29943449  .00000479  00000-0  48166-4 0  9999,2 53891  53.2183  29.9766 0001618 132.6830 227.4299 15.08851580 80091,6917.845,95.437,540.829,538.591,0.0
53891.0,STARLINK-5041,PAYLOAD,2024-03-04 07:01:56,15.0887087,0.0001593,53.2203,25.5143,120.8257,239.2892,3.7507e-05,3.09e-06,0.0,0 STARLINK-5041,1 53891U 22119F   24064.29301706  .00000309  00000-0  37507-4 0  9993,2 53891  53.2203  25.5143 0001593 120.8257 239.2892 15.08870870 80249,6917.786,95.436,540.753,538.549,0.0
53891.0,STARLINK-5041,PAYLOAD,2024-03-04 14:58:54,15.08838123,0.0001482,53.2201,24.028,112.5769,247.538,-0.00029587,-4.993e-05,0.0,0 STARLINK-5041,1 53891U 22119F   24064.62424440 -.00004993  00000-0 -29587-3 0  9994,2 53891  53.2201  24.0280 0001482 112.5769 247.5380 15.08838123 80290,6917.886,95.438,540.776,538.726,0.0
53891.0,STARLINK-5041,PAYLOAD,2024-03-05 03:42:00,15.08825167,0.0001316,53.2189,21.6508,96.5526,263.5616,-0.00010404,-1.943e-05,0.0,0 STARLINK-5041,1 53891U 22119F   24065.15417709 -.00001943  00000-0 -10404-3 0  9993,2 53891  53.2189  21.6508 0001316  96.5526 263.5616 15.08825167 80372,6917.926,95.438,540.701,538.88,0.0
53891.0,STARLINK-5041,PAYLOAD,2024-03-06 03:32:46,15.08855538,0.0001346,53.2193,17.1921,97.07,263.0445,0.000253,3.743e-05,0.0,0 STARLINK-5041,1 53891U 22119F   24066.14775943  .00003743  00000-0  25300-3 0  9999,2 53891  53.2193  17.1921 0001346  97.0700 263.0445 15.08855538 80526,6917.833,95.437,540.629,538.767,0.0
53891.0,STARLINK-5041,PAYLOAD,2024-03-06 06:43:32,15.08860677,0.000129,53.2197,16.5958,109.5775,250.5357,0.00033339,5.025e-05,0.0,0 STARLINK-5041,1 53891U 22119F   24066.28023595  .00005025  00000-0  33339-3 0  9999,2 53891  53.2197  16.5958 0001290 109.5775 250.5357 15.08860677 80963,6917.817,95.436,540.575,538.79,0.0
53891.0,STARLINK-5041,PAYLOAD,2024-03-07 01:48:10,15.0884366,0.0001249,53.218,13.0199,110.665,249.4476,0.00020517,2.979e-05,0.0,0 STARLINK-5041,1 53891U 22119F   24067.07512528  .00002979  00000-0  20517-3 0  9995,2 53891  53.2180  13.0199 0001249 110.6650 249.4476 15.08843660 80662,6917.869,95.437,540.598,538.87,0.0
53891.0,STARLINK-5041,PAYLOAD,2024-03-07 12:55:52,15.08841785,0.000114,53.2176,10.9406,61.8608,298.25,6.6351e-05,7.68e-06,0.0,0 STARLINK-5041,1 53891U 22119F   24067.53880612  .00000768  00000-0  66351-4 0  9999,2 53891  53.2176  10.9406 0001140  61.8608 298.2500 15.08841785 81155,6917.875,95.437,540.529,538.951,0.0
53891.0,STARLINK-5041,PAYLOAD,2024-03-08 01:38:58,15.08840966,0.0001207,53.2187,8.5689,94.5923,265.5207,-8.1071e-05,-1.578e-05,0.0,0 STARLINK-5041,1 53891U 22119F   24068.06872748 -.00001578  00000-0 -81071-4 0  9997,2 53891  53.2187   8.5689 0001207  94.5923 265.5207 15.08840966 80813,6917.877,95.437,540.577,538.907,0.0
53891.0,STARLINK-5041,PAYLOAD,2024-03-08 12:46:39,15.08845988,0.0001323,53.2194,6.4874,87.3852,272.7291,-3.2963e-05,-8.13e-06,0.0,0 STARLINK-5041,1 53891U 22119F   24068.53240352 -.00000813  00000-0 -32963-4 0  9996,2 53891  53.2194   6.4874 0001323  87.3852 272.7291 15.08845988 81301,6917.862,95.437,540.642,538.812,0.0
53891.0,STARLINK-5041,PAYLOAD,2024-03-09 03:05:08,15.08847098,0.0001283,53.2185,3.8088,85.5091,274.6048,0.00022973,3.371e-05,0.0,0 STARLINK-5041,1 53891U 22119F   24069.12856496  .00003371  00000-0  22973-3 0  9993,2 53891  53.2185   3.8088 0001283  85.5091 274.6048 15.08847098 80976,6917.859,95.437,540.611,538.836,0.0
53891.0,STARLINK-5041,PAYLOAD,2024-03-09 12:37:26,15.08850327,0.0001238,53.2179,2.0238,80.0647,280.0485,0.00025612,3.792e-05,0.0,0 STARLINK-5041,1 53891U 22119F   24069.52600198  .00003792  00000-0  25612-3 0  9993,2 53891  53.2179   2.0238 0001238  80.0647 280.0485 15.08850327 81453,6917.849,95.437,540.57,538.857,0.0
53891.0,STARLINK-5041,PAYLOAD,2024-03-09 18:58:59,15.08847158,0.0001602,53.217,0.8385,82.0425,278.0749,0.00019603,2.834e-05,0.0,0 STARLINK-5041,1 53891U 22119F   24069.79096431  .00002834  00000-0  19603-3 0  9990,2 53891  53.2170   0.8385 0001602  82.0425 278.0749 15.08847158 81496,6917.859,95.437,540.832,538.615,0.0
